[{"OBJECT_NAME":"STARLINK-31300","OBJECT_ID":"2024-020C","EPOCH":"2026-03-09T22:45:50.138208","MEAN_MOTION":15.30221885,"ECCENTRICITY":9.858e-5,"INCLINATION":53.1619,"RA_OF_ASC_NODE":321.0131,"ARG_OF_PERICENTER":66.7305,"MEAN_ANOMALY":293.38,"EPHEMERIS_TYPE":0,"CLASSIFICATION_TYPE":"U","NORAD_CAT_ID":58878,"ELEMENT_SET_NO":999,"REV_AT_EPOCH":11811,"BSTAR":-0.00025098982,"MEAN_MOTION_DOT":-7.79e-5,"MEAN_MOTION_DDOT":0},{"OBJECT_NAME":"SL-3 R\/B","OBJECT_ID":"1981-065B","EPOCH":"2026-03-09T21:58:16.284000","MEAN_MOTION":15.33300883,"ECCENTRICITY":0.00117648,"INCLINATION":97.6337,"RA_OF_ASC_NODE":111.1786,"ARG_OF_PERICENTER":10.529,"MEAN_ANOMALY":349.6196,"EPHEMERIS_TYPE":0,"CLASSIFICATION_TYPE":"U","NORAD_CAT_ID":12586,"ELEMENT_SET_NO":999,"REV_AT_EPOCH":43499,"BSTAR":0.00030084921,"MEAN_MOTION_DOT":9.62e-5,"MEAN_MOTION_DDOT":0}]
